NORAD_CAT_ID,OBJECT_NAME,OBJECT_TYPE,EPOCH,MEAN_MOTION,ECCENTRICITY,INCLINATION,RA_OF_ASC_NODE,ARG_OF_PERICENTER,MEAN_ANOMALY,BSTAR,MEAN_MOTION_DOT,MEAN_MOTION_DDOT,TLE_LINE0,TLE_LINE1,TLE_LINE2,SEMIMAJOR_AXIS,PERIOD,APOGEE,PERIGEE,DECAYED
52841.0,STARLINK-4065,PAYLOAD,2022-10-25 14:00:01,15.08818151,0.0001769,53.217,160.7805,48.9385,274.6879,0.0023937,0.00037991,0.0,0 STARLINK-4065,1 52841U 22062M   22298.58334491  .00037991  00000-0  23937-2 0  9997,2 52841  53.2170 160.7805 0001769  48.9385 274.6879 15.08818151  1302,6917.946999999999,95.439,541.036,538.5880000000002,0.0
52841.0,STARLINK-4065,PAYLOAD,2022-10-25 22:00:01,15.08835805,0.0001969,53.2166,159.2858,45.0539,290.2213,-0.00024312,-4.155e-05,0.0,0 STARLINK-4065,1 52841U 22062M   22298.91668981 -.00004155  00000-0 -24312-3 0  9995,2 52841  53.2166 159.2858 0001969  45.0539 290.2213 15.08835805  1300,6917.893,95.438,541.12,538.396,0.0
52841.0,STARLINK-4065,PAYLOAD,2022-10-26 14:00:01,15.08835201,0.0001811999999999,53.2162,156.2915,51.5966,306.8043,0.0020623,0.00032682,0.0,0 STARLINK-4065,1 52841U 22062M   22299.58334491  .00032682  00000-0  20623-2 0  9999,2 52841  53.2162 156.2915 0001812  51.5966 306.8043 15.08835201  1305,6917.895,95.438,541.014,538.507,0.0
52841.0,STARLINK-4065,PAYLOAD,2022-10-26 22:00:00,15.08848082,0.0002005,53.2159,154.7968,46.9117,323.0944,-3.5194e-06,-3.44e-06,0.0,0 STARLINK-4065,1 52841U 22062M   22299.91667824 -.00000344  00000-0 -35194-5 0  9999,2 52841  53.2159 154.7968 0002005  46.9117 323.0944 15.08848082  1305,6917.856,95.437,541.1080000000002,538.3340000000002,0.0
52841.0,STARLINK-4065,PAYLOAD,2022-10-27 14:00:01,15.0882813,0.0001795,53.2156,151.8021,50.6948,342.5895,0.0017500999999999,0.00027666,0.0,0 STARLINK-4065,1 52841U 22062M   22300.58335648  .00027666  00000-0  17501-2 0  9994,2 52841  53.2156 151.8021 0001795  50.6948 342.5895 15.08828130  1302,6917.917,95.438,541.023,538.54,0.0
52841.0,STARLINK-4065,PAYLOAD,2022-10-27 22:00:00,15.0883595,0.0001999,53.2156,150.3075,46.0402,358.7761,0.0003793,5.753e-05,0.0,0 STARLINK-4065,1 52841U 22062M   22300.91667824  .00005753  00000-0  37930-3 0  9997,2 52841  53.2156 150.3075 0001999  46.0402 358.7761 15.08835950  1304,6917.893,95.438,541.141,538.375,0.0
52841.0,STARLINK-4065,PAYLOAD,2022-10-28 02:00:01,15.08832984,0.0002,53.2154,149.5592,43.7923,186.8882,0.0022496,0.0003569,0.0,0 STARLINK-4065,1 52841U 22062M   22301.08335648  .00035690  00000-0  22496-2 0  9995,2 52841  53.2154 149.5592 0002000  43.7923 186.8882 15.08832984 20806,6917.901999999999,95.438,541.15,538.383,0.0
52841.0,STARLINK-4065,PAYLOAD,2022-10-28 14:00:01,15.08856483,0.0001954,53.2157,147.3127,52.7334,15.3518,-0.0013223,-0.00021281,0.0,0 STARLINK-4065,1 52841U 22062M   22301.58335648 -.00021281  00000-0 -13223-2 0  9991,2 52841  53.2157 147.3127 0001954  52.7334  15.3518 15.08856483  1308,6917.83,95.437,541.047,538.3430000000002,0.0
52841.0,STARLINK-4065,PAYLOAD,2022-10-28 22:00:01,15.08827029,0.0002174999999999,53.2158,145.81799999999996,48.8367,30.8577,0.00092019,0.00014382,0.0,0 STARLINK-4065,1 52841U 22062M   22301.91668981  .00014382  00000-0  92019-3 0  9990,2 52841  53.2158 145.8180 0002175  48.8367  30.8577 15.08827029  1300,6917.92,95.438,541.29,538.28,0.0
52841.0,STARLINK-4065,PAYLOAD,2022-10-29 12:00:00,15.0881259,0.0001961,53.2161,143.1974,51.7907,318.1412,0.0024554,0.00038977,0.0,0 STARLINK-4065,1 52841U 22062M   22302.50001157  .00038977  00000-0  24554-2 0  9996,2 52841  53.2161 143.1974 0001961  51.7907 318.1412 15.08812590  1308,6917.964,95.439,541.186,538.4730000000002,0.0
52841.0,STARLINK-4065,PAYLOAD,2022-10-29 22:00:01,15.08824013,0.0002165999999999,53.2166,141.3288,46.8978,67.5768,0.0016691,0.00026364,0.0,0 STARLINK-4065,1 52841U 22062M   22302.91668981  .00026364  00000-0  16691-2 0  9995,2 52841  53.2166 141.3288 0002166  46.8978  67.5768 15.08824013  1304,6917.929,95.439,541.293,538.2959999999998,0.0
52841.0,STARLINK-4065,PAYLOAD,2022-10-30 00:00:00,15.08813457,0.0002166999999999,53.2166,140.955,45.2681,162.0435,0.0036306,0.00057927,0.0,0 STARLINK-4065,1 52841U 22062M   22303.00001157  .00057927  00000-0  36306-2 0  9996,2 52841  53.2166 140.9550 0002167  45.2681 162.0435 15.08813457 21096,6917.962,95.439,541.326,538.327,0.0
52841.0,STARLINK-4065,PAYLOAD,2022-10-30 14:00:01,15.08859918,0.0002009999999999,53.2172,138.3345,51.8383,85.7553,-0.0022439,-0.00035843,0.0,0 STARLINK-4065,1 52841U 22062M   22303.58334491 -.00035843  00000-0 -22439-2 0  9996,2 52841  53.2172 138.3345 0002010  51.8383  85.7553 15.08859918  1301,6917.82,95.436,541.075,538.294,0.0
52841.0,STARLINK-4065,PAYLOAD,2022-10-30 22:00:01,15.08814637,0.0002150999999999,53.2173,136.8399,45.6771,103.5882,0.0019603999999999,0.00031028,0.0,0 STARLINK-4065,1 52841U 22062M   22303.91668981  .00031028  00000-0  19604-2 0  9996,2 52841  53.2173 136.8399 0002151  45.6771 103.5882 15.08814637  1305,6917.958000000001,95.439,541.311,538.335,0.0
52841.0,STARLINK-4065,PAYLOAD,2022-10-31 14:00:01,15.08848827,0.0001995,53.2178,133.8458,51.7922,120.576,9.2801e-05,1.189e-05,0.0,0 STARLINK-4065,1 52841U 22062M   22304.58334491  .00001189  00000-0  92801-4 0  9993,2 52841  53.2178 133.8458 0001995  51.7922 120.5760 15.08848827  1306,6917.853,95.437,541.099,538.3380000000002,0.0
52841.0,STARLINK-4065,PAYLOAD,2022-10-31 22:00:01,15.08841523,0.0002134999999999,53.2177,132.351,45.5203,138.52100000000002,-0.00046088,-7.616e-05,0.0,0 STARLINK-4065,1 52841U 22062M   22304.91668981 -.00007616  00000-0 -46088-3 0  9992,2 52841  53.2177 132.3510 0002135  45.5203 138.5210 15.08841523  1303,6917.876,95.437,541.2180000000002,538.264,0.0
52841.0,STARLINK-4065,PAYLOAD,2022-11-01 00:00:02,15.08835015,0.0002104,53.2175,131.9769,44.2579,232.6847,0.00014578,2.032e-05,0.0,0 STARLINK-4065,1 52841U 22062M   22305.00002315  .00002032  00000-0  14578-3 0  9990,2 52841  53.2175 131.9769 0002104  44.2579 232.6847 15.08835015 21392,6917.896,95.438,541.216,538.305,0.0
52841.0,STARLINK-4065,PAYLOAD,2022-11-01 14:00:01,15.08843989,0.0001909999999999,53.2179,129.3571,50.951,156.2029,-0.00031302,-5.267e-05,0.0,0 STARLINK-4065,1 52841U 22062M   22305.58334491 -.00005267  00000-0 -31302-3 0  9995,2 52841  53.2179 129.3571 0001910  50.9510 156.2029 15.08843989  1302,6917.868,95.437,541.055,538.4119999999998,0.0
52841.0,STARLINK-4065,PAYLOAD,2022-11-01 22:00:00,15.08819224,0.000208,53.2177,127.8623,45.0603,173.6962,0.0025113,0.00039884,0.0,0 STARLINK-4065,1 52841U 22062M   22305.91667824  .00039884  00000-0  25113-2 0  9993,2 52841  53.2177 127.8623 0002080  45.0603 173.6962 15.08819224  1302,6917.944,95.439,541.248,538.37,0.0
52841.0,STARLINK-4065,PAYLOAD,2022-11-02 06:00:00,15.08850005,0.0001863,53.2174,126.3644,47.4659,182.8797,-0.0030049,-0.00047808,0.0,0 STARLINK-4065,1 52841U 22062M   22306.25001157 -.00047808  00000-0 -30049-2 0  9993,2 52841  53.2174 126.3644 0001863  47.4659 182.8797 15.08850005 21583,6917.85,95.437,541.004,538.4259999999998,0.0
52841.0,STARLINK-4065,PAYLOAD,2022-11-02 14:00:01,15.08834634,0.0001817,53.2174,124.8669,50.4419,191.4863,-0.00068252,-0.00011133,0.0,0 STARLINK-4065,1 52841U 22062M   22306.58334491 -.00011133  00000-0 -68252-3 0  9999,2 52841  53.2174 124.8669 0001817  50.4419 191.4863 15.08834634  1308,6917.897,95.438,541.019,538.505,0.0
52841.0,STARLINK-4065,PAYLOAD,2022-11-02 19:17:29,15.08831054,0.000194,53.2172,123.8779,47.1713,312.9442,-6.5318e-05,-1.327e-05,0.0,0 STARLINK-4065,1 52841U 22062M   22306.80381539 -.00001327  00000-0 -65318-4 0  9994,2 52841  53.2172 123.8779 0001940  47.1713 312.9442 15.08831054 21661,6917.908,95.438,541.115,538.431,0.0
52841.0,STARLINK-4065,PAYLOAD,2022-11-02 20:52:52,15.08832188,0.0001932,53.2177,123.5803,43.0837,317.0306,-6.4921e-05,-1.321e-05,0.0,0 STARLINK-4065,1 52841U 22062M   22306.87005470 -.00001321  00000-0 -64921-4 0  9991,2 52841  53.2177 123.5803 0001932  43.0837 317.0306 15.08832188 21185,6917.904,95.438,541.106,538.433,0.0
52841.0,STARLINK-4065,PAYLOAD,2022-11-03 12:46:44,15.08828397,0.0002018,53.2178,120.6068,46.7253,313.3907,0.0003692,5.591e-05,0.0,0 STARLINK-4065,1 52841U 22062M   22307.53246046  .00005591  00000-0  36920-3 0  9999,2 52841  53.2178 120.6068 0002018  46.7253 313.3907 15.08828397 21289,6917.916,95.438,541.177,538.385,0.0
52841.0,STARLINK-4065,PAYLOAD,2022-11-03 17:32:53,15.0884645,0.0001962,53.2177,119.7149,47.0083,313.1074,6.637800000000001e-05,7.69e-06,0.0,0 STARLINK-4065,1 52841U 22062M   22307.73117100  .00000769  00000-0  66378-4 0  9992,2 52841  53.2177 119.7149 0001962  47.0083 313.1074 15.08846450 21800,6917.861,95.437,541.0830000000002,538.368,0.0
52841.0,STARLINK-4065,PAYLOAD,2022-11-03 20:43:39,15.08845133,0.0002,53.2179,119.1202,46.6051,313.5107,0.0001663,2.36e-05,0.0,0 STARLINK-4065,1 52841U 22062M   22307.86365201  .00002360  00000-0  16630-3 0  9997,2 52841  53.2179 119.1202 0002000  46.6051 313.5107 15.08845133 21336,6917.865,95.437,541.113,538.346,0.0
52841.0,STARLINK-4065,PAYLOAD,2022-11-04 04:40:35,15.08850832,0.0001943,53.2174,117.6334,48.057,312.0588,0.00032437,4.88e-05,0.0,0 STARLINK-4065,1 52841U 22062M   22308.19484965  .00004880  00000-0  32437-3 0  9995,2 52841  53.2174 117.6334 0001943  48.0570 312.0588 15.08850832 21381,6917.847,95.437,541.056,538.368,0.0
52841.0,STARLINK-4065,PAYLOAD,2022-11-04 18:59:03,15.08845314,0.0001956,53.2173,114.9571,49.6489,310.4674,0.00024275,3.578e-05,0.0,0 STARLINK-4065,1 52841U 22062M   22308.79101172  .00003578  00000-0  24275-3 0  9991,2 52841  53.2173 114.9571 0001956  49.6489 310.4674 15.08845314 21964,6917.864000000001,95.437,541.082,538.376,0.0
52841.0,STARLINK-4065,PAYLOAD,2022-11-05 10:52:54,15.08845283,0.0002031,53.2173,111.9833,47.3422,312.7741,9.2864e-05,1.19e-05,0.0,0 STARLINK-4065,1 52841U 22062M   22309.45340955  .00001190  00000-0  92864-4 0  9997,2 52841  53.2173 111.9833 0002031  47.3422 312.7741 15.08845283 21571,6917.864000000001,95.437,541.134,538.3240000000002,0.0
